STARLINK-4355           
1 53048U 22077F   25024.45674361  .00001366  00000+0  11089-3 0  9994
2 53048  97.6567 208.1380 0001609  61.5722 298.5665 15.01262904139513
STARLINK-4345           
1 53049U 22077G   25024.51574678  .00001029  00000+0  84648-4 0  9990
2 53049  97.6562 208.2060 0002115  72.0981 288.0474 15.01265059139529
STARLINK-4343           
1 53050U 22077H   25024.45462936  .00000302  00000+0  28093-4 0  9993
2 53050  97.6495 208.1291 0002815 107.0580 253.0952 15.01290565140099
STARLINK-4336           
1 53051U 22077J   25024.45650293  .00000794  00000+0  66367-4 0  9990
2 53051  97.6569 208.1205 0001359  75.7630 284.3745 15.01262306139510
STARLINK-4341           
1 53052U 22077K   25024.45281296 -.00000697  00000+0 -49674-4 0  9990
2 53052  97.6570 208.1362 0002212  73.2202 286.9264 15.01252376139514
STARLINK-4337           
1 53053U 22077L   25024.51203874  .00001063  00000+0  87407-4 0  9996
2 53053  97.6559 208.1995 0002730  74.4207 285.7319 15.01248041139520
STARLINK-4339           
1 53054U 22077M   25024.51760314 -.00000142  00000+0 -64787-5 0  9990
2 53054  97.6565 208.2017 0001954  69.2737 290.8696 15.01264366139524
STARLINK-4338           
1 53055U 22077N   25024.51019605  .00000205  00000+0  20536-4 0  9992
2 53055  97.6556 208.1972 0002222  64.0466 296.0987 15.01260934139523
STARLINK-4314           
1 53056U 22077P   25024.51389302  .00001320  00000+0  10730-3 0  9990
2 53056  97.6570 208.2013 0002280  63.2915 296.8542 15.01266450139525
STARLINK-4252           
1 53057U 22077Q   25024.50649030  .00001904  00000+0  15275-3 0  9994
2 53057  97.6543 208.1930 0002844  48.8864 311.2606 15.01260113139524
STARLINK-4317           
1 53058U 22077R   25024.45859767  .00001374  00000+0  11157-3 0  9995
2 53058  97.6571 208.1040 0000633  79.4022 280.7274 15.01264129139519
STARLINK-4320           
1 53059U 22077S   25024.50302967  .00000894  00000+0  74197-4 0  9997
2 53059  97.6549 208.1886 0002558  37.7135 322.4268 15.01264937139528
STARLINK-4305           
1 53060U 22077T   25024.50834350  .00000621  00000+0  52961-4 0  9998
2 53060  97.6555 208.1957 0002721  64.7519 295.3987 15.01264360139520
STARLINK-4308           
1 53061U 22077U   25024.50093695  .00000383  00000+0  34403-4 0  9994
2 53061  97.6543 208.1846 0000660  48.1274 312.0006 15.01260760139528
STARLINK-4311           
1 53062U 22077V   25024.50463632  .00001588  00000+0  12820-3 0  9993
2 53062  97.6539 208.1899 0002970  73.3129 286.8421 15.01264796139529
STARLINK-4307           
1 53063U 22077W   25024.45834658  .00001419  00000+0  11501-3 0  9996
2 53063  97.6571 208.1549 0000748  89.8636 270.2674 15.01265164 11104
STARLINK-4313           
1 53064U 22077X   25024.50278787  .00000972  00000+0  80254-4 0  9993
2 53064  97.6545 208.1876 0002418  70.3564 289.7921 15.01265285139521
STARLINK-4312           
1 53065U 22077Y   25024.49723095  .00000491  00000+0  42829-4 0  9991
2 53065  97.6535 208.1786 0001463  61.7083 298.4288 15.01261438139529
STARLINK-4309           
1 53066U 22077Z   25024.49562756  .00000520  00000+0  45110-4 0  9996
2 53066  97.6543 208.1843 0001752  83.5466 276.5958 15.01260372139528
STARLINK-4306           
1 53067U 22077AA  25024.49353206  .00000299  00000+0  27883-4 0  9995
2 53067  97.6538 208.1706 0001813  84.4475 275.6955 15.01261852139520
STARLINK-4325           
1 53068U 22077AB  25024.49908322  .00001007  00000+0  82958-4 0  9993
2 53068  97.6548 208.1753 0002371  38.9384 321.2011 15.01263573139520
STARLINK-4323           
1 53069U 22077AC  25024.48982858  .00000235  00000+0  22861-4 0  9998
2 53069  97.6536 208.1614 0001604  85.6887 274.4520 15.01260698139528
STARLINK-4342           
1 53070U 22077AD  25024.56203405  .00001884  00000+0  15121-3 0  9994
2 53070  97.6539 208.2419 0002350  60.7758 299.3701 15.01263524140112
STARLINK-4328           
1 53071U 22077AE  25024.48797578  .00000255  00000+0  24475-4 0  9999
2 53071  97.6539 208.1594 0001464  93.6046 266.5346 15.01262103139522
STARLINK-4344           
1 53072U 22077AF  25024.48424822  .00001699  00000+0  13680-3 0  9997
2 53072  97.6561 208.1716 0000719 123.1751 236.9542 15.01276967139520
STARLINK-4346           
1 53073U 22077AG  25024.48822076  .00000189  00000+0  19335-4 0  9998
2 53073  97.6541 208.1506 0001125  93.4465 266.6888 15.01260177139528
STARLINK-4310           
1 53074U 22077AH  25024.49168249  .00000305  00000+0  28310-4 0  9998
2 53074  97.6516 208.1560 0002228 103.1647 256.9826 15.01257996139526
STARLINK-4348           
1 53075U 22077AJ  25024.48612382  .00000981  00000+0  80923-4 0  9998
2 53075  97.6537 208.1445 0000516 104.4233 255.7049 15.01263289139521
STARLINK-4347           
1 53076U 22077AK  25024.48453926 -.00001761  00000+0 -13265-3 0  9999
2 53076  97.6553 208.1587 0000254 108.6023 251.5228 15.01242022139524
STARLINK-4322           
1 53078U 22077AM  25024.48242545  .00000034  00000+0  72525-5 0  9990
2 53078  97.6533 208.1519 0000476 131.7136 228.4129 15.01243435139529
STARLINK-4327           
1 53079U 22077AN  25024.47686410  .00000006  00000+0  50343-5 0  9996
2 53079  97.6542 208.1463 0000568  75.6153 284.5134 15.01262896139526
STARLINK-4330           
1 53080U 22077AP  25024.48056516  .00000571  00000+0  49008-4 0  9999
2 53080  97.6535 208.1498 0000901  98.9250 261.2076 15.01265169139528
STARLINK-4326           
1 53081U 22077AQ  25024.48081518 -.00000116  00000+0 -44214-5 0  9992
2 53081  97.6539 208.1331 0000221 172.5750 187.5477 15.01262244139524
STARLINK-4321           
1 53082U 22077AR  25024.47501647  .00001210  00000+0  98786-4 0  9998
2 53082  97.6530 208.1429 0001659 215.2599 144.8515 15.01258165139522
STARLINK-4251           
1 53083U 22077AS  25024.46207885  .00001498  00000+0  12123-3 0  9993
2 53083  97.6575 208.1358 0001543 163.2530 196.8746 15.01257561139524
STARLINK-4319           
1 53084U 22077AT  25024.47315662  .00007689  00000+0  60342-3 0  9992
2 53084  97.6545 208.1424 0001880 172.6442 187.4810 15.01207085139520
STARLINK-4324           
1 53085U 22077AU  25024.46784638  .00001480  00000+0  11980-3 0  9992
2 53085  97.6534 208.1381 0001315 202.2051 157.9116 15.01266040139527
STARLINK-4318           
1 53086U 22077AV  25024.47130514  .00001083  00000+0  88909-4 0  9997
2 53086  97.6542 208.1394 0001384 223.7557 136.3558 15.01264794139521
STARLINK-4329           
1 53087U 22077AW  25024.46945448  .00001096  00000+0  89880-4 0  9990
2 53087  97.6537 208.1291 0000937 228.9009 131.2134 15.01266510139526
STARLINK-4333           
1 53088U 22077AX  25024.46761734  .00000982  00000+0  81096-4 0  9999
2 53088  97.6561 208.1390 0001990 162.4727 197.6566 15.01239446139526
STARLINK-4063           
1 53132U 22083A   25024.76735056 -.00000191  00000+0  61019-5 0  9994
2 53132  53.2166 209.8427 0001354  90.5214 269.5933 15.08838624140114
STARLINK-4150           
1 53134U 22083C   25024.24478135  .00000615  00000+0  56737-4 0  9991
2 53134  53.2167 212.1902 0001407  88.1441 271.9712 15.08841959139403
STARLINK-4023           
1 53135U 22083D   25024.25214749  .00000849  00000+0  71412-4 0  9998
2 53135  53.2168 212.1565 0001489  84.3281 275.7881 15.08840349140391
STARLINK-4152           
1 53136U 22083E   25024.77838164 -.00000105  00000+0  11516-4 0  9994
2 53136  53.2165 209.7940 0001388  88.9207 271.1944 15.08842038140111
STARLINK-4145           
1 53137U 22083F   25024.77098203  .00005946  00000+0  39084-3 0  9993
2 53137  53.2164 209.8284 0001577 111.7843 248.3317 15.08887962140119
STARLINK-4141           
1 53138U 22083G   25024.76964782  .00002587  00000+0  18045-3 0  9999
2 53138  53.2163 205.0152 0001239  96.5342 263.5791 15.08860131140170
STARLINK-4185           
1 53139U 22083H   25024.75992345  .00010940  00000+0  70286-3 0  9992
2 53139  53.2159 209.8761 0000881 116.7139 243.3943 15.08919044140112
STARLINK-4170           
1 53140U 22083J   25024.23374787  .00001773  00000+0  12948-3 0  9996
2 53140  53.2174 212.2409 0001540  85.6982 274.4186 15.08839337139401
STARLINK-4103           
1 53141U 22083K   25024.74527113 -.00000180  00000+0  67488-5 0  9999
2 53141  53.2167 209.9445 0001252  95.4433 264.6702 15.08836114140112
STARLINK-4101           
1 53142U 22083L   25024.75358200  .00000185  00000+0  29715-4 0  9994
2 53142  53.2157 209.8752 0001055  56.6059 303.5034 15.08850796140119
STARLINK-4102           
1 53143U 22083M   25024.21166440  .00001290  00000+0  99136-4 0  9991
2 53143  53.2167 212.3399 0001292  95.7725 264.3414 15.08840253139407
STARLINK-4100           
1 53144U 22083N   25024.22270708  .00000094  00000+0  24003-4 0  9998
2 53144  53.2172 212.2980 0001444  95.2646 264.8510 15.08837635139407
STARLINK-4106           
1 53145U 22083P   25024.80047099 -.00000540  00000+0 -15866-4 0  9993
2 53145  53.2167 209.6927 0001329 102.8580 257.2561 15.08833712140122
STARLINK-4099           
1 53146U 22083Q   25024.74900202 -.00003149  00000+0 -18017-3 0  9999
2 53146  53.2164 209.9248 0001230 125.2673 234.8434 15.08773987140118
STARLINK-4094           
1 53147U 22083R   25024.73053874  .00000208  00000+0  31128-4 0  9993
2 53147  53.2163 210.0064 0001300  97.6001 262.5139 15.08843411140112
STARLINK-4021           
1 53149U 22083T   25024.75821096  .00000090  00000+0  23729-4 0  9993
2 53149  53.2166 200.0851 0001194  92.0624 268.0505 15.08839312140259
STARLINK-4038           
1 53150U 22083U   25024.18314056 -.00000750  00000+0 -29072-4 0  9997
2 53150  53.2161 202.4588 0001082  77.7783 282.3331 15.08829656139536
STARLINK-4040           
1 53151U 22083V   25024.70202158 -.00000045  00000+0  15262-4 0  9997
2 53151  53.2172 200.1325 0001394  94.5819 265.5332 15.08840919140245
STARLINK-4045           
1 53152U 22083W   25024.17946237 -.00000050  00000+0  14927-4 0  9995
2 53152  53.2172 202.4795 0001404  96.4865 263.6287 15.08839544139536
